IRIDIUM 150             
1 43257U 18030J   25128.21166093  .00000292  00000+0  97241-4 0  9998
2 43257  86.3930  99.7800 0002481  92.7847 267.3633 14.34220820372139
IRIDIUM 143             
1 43258U 18030K   25128.19263339  .00000274  00000+0  90909-4 0  9991
2 43258  86.3934  99.8650 0002717  93.4855 266.6651 14.34217954372076
IRIDIUM 161             
1 43478U 18047C   25128.06889898  .00000644  00000+0  18558-3 0  9993
2 43478  86.4473 257.7049 0002072  91.1641 268.9798 14.43275372366706
IRIDIUM 152             
1 43479U 18047D   25127.88627390  .00000346  00000+0  11666-3 0  9992
2 43479  86.3949 257.6416 0002022  96.0281 264.1145 14.34216801364401
IRIDIUM 147             
1 43480U 18047E   25128.10192474  .00000135  00000+0  41116-4 0  9990
2 43480  86.3950 257.5494 0002158  90.5996 269.5447 14.34217439364426
IRIDIUM 110             
1 43481U 18047F   25127.82919126  .00000132  00000+0  39951-4 0  9991
2 43481  86.3954 257.7451 0001717  89.2685 270.8707 14.34216795364378
IRIDIUM 162             
1 43482U 18047G   25128.06260118  .00000494  00000+0  14095-3 0  9991
2 43482  86.4474 257.6032 0001925  97.0479 263.0941 14.43281963366690
IRIDIUM 160             
1 43569U 18061A   25128.33317718  .00000021  00000+0  45325-6 0  9991
2 43569  86.4008 225.9165 0001925  92.1384 268.0033 14.34217564355348
